NORAD_CAT_ID,OBJECT_NAME,OBJECT_TYPE,EPOCH,MEAN_MOTION,ECCENTRICITY,INCLINATION,RA_OF_ASC_NODE,ARG_OF_PERICENTER,MEAN_ANOMALY,BSTAR,MEAN_MOTION_DOT,MEAN_MOTION_DDOT,TLE_LINE0,TLE_LINE1,TLE_LINE2,SEMIMAJOR_AXIS,PERIOD,APOGEE,PERIGEE,DECAYED
49136.0,STARLINK-3084,PAYLOAD,2022-01-09 14:00:01,15.69759231,0.0003246,69.9975,156.7275,278.5667,158.6028,-0.00033163,-0.0003963,0.0,0 STARLINK-3084,1 49136U 21082G   22009.58334491 -.00039630  00000-0 -33163-3 0  9998,2 49136  69.9975 156.7275 0003246 278.5667 158.6028 15.69759231 18534,6737.723000000001,91.734,361.775,357.401,0.0
49136.0,STARLINK-3084,PAYLOAD,2022-01-09 22:00:00,15.69749872,0.0003271,69.997,155.7903,283.6101,236.6835,0.00021055,0.00024997,0.0,0 STARLINK-3084,1 49136U 21082G   22009.91667824  .00024997  00000-0  21055-3 0  9999,2 49136  69.9970 155.7903 0003271 283.6101 236.6835 15.69749872 18582,6737.75,91.734,361.819,357.411,0.0
49136.0,STARLINK-3084,PAYLOAD,2022-01-10 14:00:01,15.6976138,0.0003644,69.9976,153.916,278.5312,48.0141,-0.00089369,-0.00105627,0.0,0 STARLINK-3084,1 49136U 21082G   22010.58334491 -.00105627  00000-0 -89369-3 0  9999,2 49136  69.9976 153.9160 0003644 278.5312  48.0141 15.69761380 18699,6737.717,91.734,362.037,357.12699999999984,0.0
49136.0,STARLINK-3084,PAYLOAD,2022-01-10 22:00:00,15.69686885,0.0003784,69.9971,152.9789,282.5794,127.0693,7.6146e-05,8.865e-05,0.0,0 STARLINK-3084,1 49136U 21082G   22010.91667824  .00008865  00000-0  76146-4 0  9999,2 49136  69.9971 152.9789 0003784 282.5794 127.0693 15.69686885 18746,6737.93,91.738,362.345,357.245,0.0
49136.0,STARLINK-3084,PAYLOAD,2022-01-11 14:00:01,15.69724204,0.000378,69.9971,151.1053,279.7184,296.0524,-6.3159e-05,-7.738e-05,0.0,0 STARLINK-3084,1 49136U 21082G   22011.58334491 -.00007738  00000-0 -63159-4 0  9994,2 49136  69.9971 151.1053 0003780 279.7184 296.0524 15.69724204  3672,6737.823,91.736,362.235,357.141,0.0
49136.0,STARLINK-3084,PAYLOAD,2022-01-11 22:00:00,15.69737325,0.0003843,69.9966,150.168,283.0897,15.7703,5.4168e-05,6.256e-05,0.0,0 STARLINK-3084,1 49136U 21082G   22011.91667824  .00006256  00000-0  54168-4 0  9992,2 49136  69.9966 150.1680 0003843 283.0897  15.7703 15.69737325 18905,6737.786,91.735,362.24,357.061,0.0
49136.0,STARLINK-3084,PAYLOAD,2022-01-12 14:00:01,15.69771697,0.0003854,69.9972,148.2939,280.0669,185.0327,-4.1047e-05,-5.115e-05,0.0,0 STARLINK-3084,1 49136U 21082G   22012.58334491 -.00005115  00000-0 -41047-4 0  9994,2 49136  69.9972 148.2939 0003854 280.0669 185.0327 15.69771697  3696,6737.687,91.733,362.149,356.955,0.0
49136.0,STARLINK-3084,PAYLOAD,2022-01-12 22:00:00,15.69811049,0.0003733,69.9969,147.3567,283.2995,264.9466,-0.00040163,-0.0004801,0.0,0 STARLINK-3084,1 49136U 21082G   22012.91667824 -.00048010  00000-0 -40163-3 0  9998,2 49136  69.9969 147.3567 0003733 283.2995 264.9466 15.69811049 19056,6737.575,91.731,361.955,356.9240000000001,0.0
49136.0,STARLINK-3084,PAYLOAD,2022-01-13 14:00:01,15.69761717,0.0003572,69.9972,145.4829,282.0439,72.521,-0.00012137,-0.00014684,0.0,0 STARLINK-3084,1 49136U 21082G   22013.58334491 -.00014684  00000-0 -12137-3 0  9993,2 49136  69.9972 145.4829 0003572 282.0439  72.5210 15.69761717  3689,6737.715999999999,91.734,361.987,357.1740000000001,0.0
49136.0,STARLINK-3084,PAYLOAD,2022-01-13 22:00:00,15.69801356,0.0003676,69.9967,144.5457,285.6493,152.0547,-0.00039686,-0.00047426,0.0,0 STARLINK-3084,1 49136U 21082G   22013.91667824 -.00047426  00000-0 -39686-3 0  9997,2 49136  69.9967 144.5457 0003676 285.6493 152.0547 15.69801356 19211,6737.602,91.731,361.944,356.991,0.0
49136.0,STARLINK-3084,PAYLOAD,2022-01-14 14:00:01,15.69753666,0.0003887,69.9973,142.6714,282.6322,321.3783,0.00017609,0.00020867,0.0,0 STARLINK-3084,1 49136U 21082G   22014.58334491  .00020867  00000-0  17609-3 0  9991,2 49136  69.9973 142.6714 0003887 282.6322 321.3783 15.69753666 19320,6737.739000000001,91.734,362.223,356.985,0.0
49136.0,STARLINK-3084,PAYLOAD,2022-01-14 22:00:00,15.698117300000002,0.0003808,69.9973,141.7344,285.4216,41.7064,-0.00076302,-0.00090566,0.0,0 STARLINK-3084,1 49136U 21082G   22014.91667824 -.00090566  00000-0 -76302-3 0  9997,2 49136  69.9973 141.7344 0003808 285.4216  41.7064 15.69811730  3690,6737.573,91.731,362.003,356.872,0.0
49136.0,STARLINK-3084,PAYLOAD,2022-01-15 06:00:00,15.69716306,0.0003425,69.9984,140.8001,281.3702,128.8578,0.00072768,0.00087447,0.0,0 STARLINK-3084,1 49136U 21082G   22015.25001157  .00087447  00000-0  72768-3 0  9990,2 49136  69.9984 140.8001 0003425 281.3702 128.8578 15.69716306 19420,6737.846,91.736,362.018,357.403,0.0
49136.0,STARLINK-3084,PAYLOAD,2022-01-15 14:00:01,15.69820884,0.0003745,69.9976,139.861,285.8034,207.6461,-0.00042481,-0.00050773,0.0,0 STARLINK-3084,1 49136U 21082G   22015.58335648 -.00050773  00000-0 -42481-3 0  9994,2 49136  69.9976 139.8610 0003745 285.8034 207.6461 15.69820884  3705,6737.545999999999,91.73,361.935,356.88800000000015,0.0
49136.0,STARLINK-3084,PAYLOAD,2022-01-15 22:00:01,15.69785775,0.0003838,69.9972,138.9236,286.991,289.6347,-0.00036422,-0.00043537,0.0,0 STARLINK-3084,1 49136U 21082G   22015.91668981 -.00043537  00000-0 -36422-3 0  9998,2 49136  69.9972 138.9236 0003838 286.9910 289.6347 15.69785775 19533,6737.647,91.732,362.098,356.926,0.0
49136.0,STARLINK-3084,PAYLOAD,2022-01-16 14:00:01,15.69691222,0.0003498999999999,69.9978,137.0494,288.0434,94.7951,0.00026459,0.00031417,0.0,0 STARLINK-3084,1 49136U 21082G   22016.58334491  .00031417  00000-0  26459-3 0  9999,2 49136  69.9978 137.0494 0003499 288.0434  94.7951 15.69691222  3703,6737.917,91.738,362.14,357.425,0.0
49136.0,STARLINK-3084,PAYLOAD,2022-01-16 22:00:00,15.69744114,0.0003503,69.9977,136.1125,290.4757,175.4171,-0.00026193,-0.00031358,0.0,0 STARLINK-3084,1 49136U 21082G   22016.91667824 -.00031358  00000-0 -26193-3 0  9996,2 49136  69.9977 136.1125 0003503 290.4757 175.4171 15.69744114  3692,6737.766,91.735,361.991,357.271,0.0
49136.0,STARLINK-3084,PAYLOAD,2022-01-17 00:00:00,15.69757817,0.000349,69.9978,135.8783,288.5613,288.1054,-0.00057347,-0.00068144,0.0,0 STARLINK-3084,1 49136U 21082G   22017.00001157 -.00068144  00000-0 -57347-3 0  9996,2 49136  69.9978 135.8783 0003490 288.5613 288.1054 15.69757817 19708,6737.727,91.734,361.943,357.24,0.0
49136.0,STARLINK-3084,PAYLOAD,2022-01-17 14:00:01,15.69699955,0.0003774,69.9982,134.239,288.5272,343.561,0.00023457,0.00027828,0.0,0 STARLINK-3084,1 49136U 21082G   22017.58334491  .00027828  00000-0  23457-3 0  9996,2 49136  69.9982 134.2390 0003774 288.5272 343.5610 15.69699955 19797,6737.892,91.737,362.3,357.215,0.0
49136.0,STARLINK-3084,PAYLOAD,2022-01-17 22:00:00,15.69746536,0.0003827,69.9978,133.30200000000002,289.2598,65.9,-0.00015282,-0.00018415,0.0,0 STARLINK-3084,1 49136U 21082G   22017.91667824 -.00018415  00000-0 -15282-3 0  9993,2 49136  69.9978 133.3020 0003827 289.2598  65.9000 15.69746536  3687,6737.759,91.735,362.203,357.046,0.0
49136.0,STARLINK-3084,PAYLOAD,2022-01-18 14:00:01,15.69772622,0.0003919,69.9981,131.4279,288.8128,232.6014,0.00022254,0.00026466,0.0,0 STARLINK-3084,1 49136U 21082G   22018.58334491  .00026466  00000-0  22254-3 0  9998,2 49136  69.9981 131.4279 0003919 288.8128 232.6014 15.69772622  3685,6737.685,91.733,362.19,356.909,0.0
49136.0,STARLINK-3084,PAYLOAD,2022-01-18 22:00:00,15.69806849,0.0003966,69.998,130.491,289.5698,315.0016,-0.0007943,-0.00094215,0.0,0 STARLINK-3084,1 49136U 21082G   22018.91667824 -.00094215  00000-0 -79430-3 0  9991,2 49136  69.9980 130.4910 0003966 289.5698 315.0016 15.69806849 20009,6737.587,91.731,362.124,356.779,0.0
49136.0,STARLINK-3084,PAYLOAD,2022-01-19 06:00:02,15.69759577,0.0003929,69.9984,129.554,285.0905,42.7002,0.00029847,0.00035588,0.0,0 STARLINK-3084,1 49136U 21082G   22019.25002315  .00035588  00000-0  29847-3 0  9990,2 49136  69.9984 129.5540 0003929 285.0905  42.7002 15.69759577 20051,6737.722,91.734,362.234,356.94,0.0
49136.0,STARLINK-3084,PAYLOAD,2022-01-19 14:00:01,15.6975325,0.000395,69.9985,128.6173,289.7005,121.2024,5.4053e-06,4.33e-06,0.0,0 STARLINK-3084,1 49136U 21082G   22019.58334491  .00000433  00000-0  54053-5 0  9999,2 49136  69.9985 128.6173 0003950 289.7005 121.2024 15.69753250  3689,6737.74,91.734,362.266,356.944,0.0
49136.0,STARLINK-3084,PAYLOAD,2022-01-19 22:00:00,15.69795765,0.0003856,69.998,127.6801,290.6316,203.3909,-0.00043987,-0.00052502,0.0,0 STARLINK-3084,1 49136U 21082G   22019.91667824 -.00052502  00000-0 -43987-3 0  9993,2 49136  69.9980 127.6801 0003856 290.6316 203.3909 15.69795765 20154,6737.618,91.732,362.081,356.885,0.0
49136.0,STARLINK-3084,PAYLOAD,2022-01-20 14:00:01,15.69695568,0.0003867,69.9981,125.8058,291.137,9.1535,-0.00015669,-0.00018836,0.0,0 STARLINK-3084,1 49136U 21082G   22020.58334491 -.00018836  00000-0 -15669-3 0  9997,2 49136  69.9981 125.8058 0003867 291.1370   9.1535 15.69695568  3706,6737.905,91.738,362.376,357.165,0.0
49136.0,STARLINK-3084,PAYLOAD,2022-01-20 22:00:00,15.69705569,0.0003912,69.9983,124.8704,291.0193,92.3161,-0.00019795,-0.00023736,0.0,0 STARLINK-3084,1 49136U 21082G   22020.91667824 -.00023736  00000-0 -19795-3 0  9992,2 49136  69.9983 124.8704 0003912 291.0193  92.3161 15.69705569  3676,6737.876,91.737,362.377,357.106,0.0
49136.0,STARLINK-3084,PAYLOAD,2022-01-21 08:00:01,15.69762091,0.0003842,69.9997,123.7033,288.5098,288.6375,-0.0022801,-0.00264197,0.0,0 STARLINK-3084,1 49136U 21082G   22021.33334491 -.00264197  00000-0 -22801-2 0  9999,2 49136  69.9997 123.7033 0003842 288.5098 288.6375 15.69762091 20388,6737.715,91.734,362.168,356.991,0.0
49136.0,STARLINK-3084,PAYLOAD,2022-01-21 14:00:01,15.69730343,0.0003889,70.0003,123.0036,293.8632,255.5615,-0.0055522,-0.00616191,0.0,0 STARLINK-3084,1 49136U 21082G   22021.58334491 -.00616191  00000-0 -55522-2 0  9997,2 49136  70.0003 123.0036 0003889 293.8632 255.5615 15.69730343 20418,6737.806,91.736,362.291,357.05,0.0
